118P/Shoemaker-Levy,e,10.0949,142.0926,314.8034,3.348421,0.1608585,0.45367440,323.0958,04/09.0/2022,2000,g 12.0,4.0
# From MPEC 2022-CN4
119P/Parker-Hartley,e,7.3933,104.5740,322.0039,3.805950,0.1327423,0.38832568,343.4264,04/09.0/2022,2000,g  3.5,8.0
# From MPEC 2022-CN4
120P/Mueller,e,8.4899,358.6715,36.6069,3.963400,0.1249114,0.37473462,42.0570,04/09.0/2022,2000,g 12.0,4.0
# From MPEC 2021-Y10
121P/Shoemaker-Holt,e,20.1646,94.1166,11.5261,4.583619,0.1004364,0.18596955,315.3130,04/09.0/2022,2000,g  6.5,8.0
# From MPC 75718
122P/de Vico,e,85.2447,79.6080,12.9964,17.62406,0.0133213,0.96227375,129.3422,04/09.0/2022,2000,g  7.5,5.2
# From MPEC 2021-F20
123P/West-Hartley,e,15.2838,45.9735,104.0880,3.878280,0.1290463,0.44522382,149.8505,04/09.0/2022,2000,g 12.2,4.0
# From MPEC 2021-F20
124P/Mrkos,e,31.6819,0.1366,184.6278,3.335325,0.1618068,0.50115988,115.2428,04/09.0/2022,2000,g 15.2,4.0
# From MPEC 2015-M77
125P/Spacewatch,e,9.9866,153.1466,87.2222,3.126863,0.1782546,0.51229308,235.5222,04/09.0/2022,2000,g  9.0,4.0
# From MPC 66205
126P/IRAS,e,45.8758,357.8716,356.5636,5.636646,0.0736500,0.69639111,326.6883,04/09.0/2022,2000,g  9.0,4.0
# From MPC 84321
127P/Holt-Olmstead,e,14.2990,13.6067,6.3267,3.455424,0.1534447,0.36014551,341.0360,04/09.0/2022,2000,g 11.0,6.0
# From MPC 89014
128P/Shoemaker-Holt,e,4.3692,214.3112,210.2634,4.490256,0.1035851,0.32130577,198.3770,04/09.0/2022,2000,g  8.5,4.0
# From MPEC 2022-ED3
129P/Shoemaker-Levy,e,3.4422,184.8689,307.5545,4.286089,0.1110740,0.08442540,333.7927,04/09.0/2022,2000,g 11.0,4.0
# From MPEC 2022-ED3
130P/McNaught-Hughes,e,6.0624,70.2006,246.0636,3.383539,0.1583607,0.46129917,243.3533,04/09.0/2022,2000,g 10.0,6.0
# From MPC102101
131P/Mueller,e,7.3586,214.1475,179.0350,3.679714,0.1396314,0.34434860,163.3796,04/09.0/2022,2000,g 11.0,4.0
# From MPEC 2022-GA9
132P/Helin-Roman-Alu,e,5.3826,173.9968,216.3548,3.885716,0.1286760,0.56460677,18.8996,04/09.0/2022,2000,g 11.0,6.0
# From MPC 94676
133P/Elst-Pizarro,e,1.3895,160.0989,131.8862,3.165414,0.1750082,0.15663712,226.6614,04/09.0/2022,2000,g 15.4,2.0
# From MPC 89012
134P/Kowal-Vavrova,e,4.3363,202.0596,18.8769,6.262708,0.0628870,0.58540413,181.4312,04/09.0/2022,2000,g 11.5,4.0
# From MPEC 2021-F20
135P/Shoemaker-Levy,e,6.0631,213.0247,22.3232,3.801211,0.1329907,0.29493637,0.2193,04/09.0/2022,2000,g  7.0,8.0
# From MPEC 2020-W26
136P/Mueller,e,9.4243,137.4445,224.9844,4.191371,0.1148603,0.29319128,245.2276,04/09.0/2022,2000,g 11.0,4.0
# From MPEC 2021-N06
137P/Shoemaker-Levy,e,4.8555,232.9888,141.0893,4.520956,0.1025318,0.57376634,124.2444,04/09.0/2022,2000,g 11.0,4.0
# From MPEC 2016-U66
138P/Shoemaker-Levy,e,10.0904,309.3145,95.5471,3.621207,0.1430290,0.53095214,153.2834,04/09.0/2022,2000,g 15.0,6.0
# From MPEC 2020-HN5
139P/Vaisala-Oterma,e,2.3352,242.1505,165.7193,4.520547,0.1025457,0.24736132,162.0745,04/09.0/2022,2000,g  9.5,4.0
# From MPEC 2015-E14
140P/Bowell-Skiff,e,3.8416,343.2397,172.8056,6.422674,0.0605523,0.69234542,147.7401,04/09.0/2022,2000,g 11.5,6.0
# From MPEC 2022-GA9
141P/Machholz,e,13.9475,241.8214,153.5697,3.057476,0.1843570,0.73588181,88.2439,04/09.0/2022,2000,g 12.0,12.0
# From MPEC 2021-Y10
142P/Ge-Wang,e,12.2515,175.9331,173.9717,4.998661,0.0881908,0.49720832,29.2190,04/09.0/2022,2000,g  8.5,6.0
# From MPEC 2021-W31
143P/Kowal-Mrkos,e,4.7033,245.1299,320.3313,4.277933,0.1113918,0.41156367,159.8668,04/09.0/2022,2000,g 13.5,2.0
# From MPC104795
144P/Kushida,e,3.9318,243.0784,216.3489,3.824577,0.1317738,0.63533411,273.4669,04/09.0/2022,2000,g  8.5,8.0
# From MPC108598
145P/Shoemaker-Levy,e,11.2777,26.7922,10.2445,4.137142,0.1171261,0.54196196,196.7385,04/09.0/2022,2000,g 13.5,4.0
# From MPC100284
146P/Shoemaker-LINEAR,e,23.1092,53.3817,316.9857,4.030924,0.1217860,0.64734200,256.5504,04/09.0/2022,2000,g 15.0,4.0
# From MPC 75720
147P/Kushida-Muramatsu,e,2.3113,92.2772,348.2767,4.032496,0.1217147,0.22106054,286.2534,04/09.0/2022,2000,g 14.0,4.0
# From MPEC 2022-CN4
148P/Anderson-LINEAR,e,3.6581,89.2112,8.0288,3.617289,0.1432614,0.54975095,350.5909,04/09.0/2022,2000,g 16.0,2.0
# From MPC 75720
149P/Mueller,e,34.4878,144.1271,31.1097,4.130210,0.1174210,0.32358388,156.6838,04/09.0/2022,2000,g  8.0,8.0
# From MPEC 2021-W31
150P/LONEOS,e,18.5083,272.2742,245.6759,3.878274,0.1290465,0.54808908,269.1853,04/09.0/2022,2000,g 13.5,4.0
# From MPEC 2015-Q71
151P/Helin,e,4.7286,143.1574,216.0750,5.763096,0.0712394,0.57376828,168.8912,04/09.0/2022,2000,g 10.0,6.0
# From MPEC 2022-GA9
152P/Helin-Lawrence,e,9.8805,91.8582,163.9543,4.476371,0.1040675,0.30860253,8.8733,04/09.0/2022,2000,g 11.5,4.0
# From MPC 46101
153P/Ikeya-Zhang,e,27.9689,93.2971,34.9167,50.48439,0.0027477,0.98966778,0.0000,03/03.5982/2002,2000,g  9.0,4.0
# From MPC 87068
154P/Brewington,e,17.6331,343.0398,47.8638,4.801427,0.0936804,0.67602277,285.3616,04/09.0/2022,2000,g  2.5,12.0
# From MPEC 2021-F20
155P/Shoemaker,e,6.3981,97.1824,14.5854,6.573034,0.0584865,0.72625723,51.2404,04/09.0/2022,2000,g 13.8,4.0
# From MPEC 2022-GA9
156P/Russell-LINEAR,e,17.2652,35.3510,0.4544,3.461640,0.1530316,0.61498950,77.5933,04/09.0/2022,2000,g 15.5,2.0
# From MPEC 2021-W31
157P/Tritton,e,12.4208,287.5557,155.0408,3.545373,0.1476424,0.55661347,337.2894,04/09.0/2022,2000,g 10.0,4.0
# From MPEC 2021-Y10
158P/Kowal-LINEAR,e,7.8634,135.2148,178.8194,5.156559,0.0841713,0.06857761,22.2790,04/09.0/2022,2000,g  9.0,4.0
# From MPEC 2021-N06
159P/LONEOS,e,23.4735,54.9604,4.5591,5.853078,0.0696029,0.38213142,98.6697,04/09.0/2022,2000,g 10.0,4.0
# From MPEC 2021-J28
160P/LINEAR,e,15.6164,333.3599,12.7439,3.775668,0.1343425,0.52628586,115.3257,04/09.0/2022,2000,g 15.5,2.0
# From MPC 75721
161P/Hartley-IRAS,e,95.7992,1.5767,46.9870,7.721273,0.0459379,0.83510215,282.1543,04/09.0/2022,2000,g  8.5,6.0
# From MPEC 2022-GA9
162P/SidingSpring,e,27.5584,30.8953,357.1644,3.091739,0.1813008,0.58305691,88.3130,04/09.0/2022,2000,g 12.0,4.0
# From MPEC 2021-S45
163P/NEAT,e,12.7110,102.0764,349.5730,3.766171,0.1348509,0.45211850,131.8745,04/09.0/2022,2000,g 14.5,4.0
# From MPEC 2021-F20
164P/Christensen,e,16.2618,88.2762,325.8415,3.655636,0.1410132,0.54050553,198.5677,04/09.0/2022,2000,g 11.0,4.0
# From MPC 75721
165P/LINEAR,e,15.8945,0.8673,125.8904,17.85970,0.0130585,0.61554371,104.4617,04/09.0/2022,2000,g 11.5,2.0
# From MPC 75722
166P/NEAT,e,15.3766,64.3961,321.5293,13.81524,0.0191940,0.38421622,139.3285,04/09.0/2022,2000,g  5.5,4.0
# From MPC 75722
167P/CINEOS,e,19.1137,295.6912,344.6942,16.23420,0.0150681,0.27107237,115.0929,04/09.0/2022,2000,g  9.5,2.0
# From MPC102101
168P/Hergenrother,e,21.6247,355.4518,15.0091,3.582394,0.1453597,0.62111750,142.0662,04/09.0/2022,2000,g 15.5,4.0
# From MPEC 2022-GA9
169P/NEAT,e,11.2989,176.1076,218.0475,2.601649,0.2348719,0.76829817,338.4656,04/09.0/2022,2000,g 16.0,2.0
# From MPEC 2021-O56
170P/Christensen,e,10.1250,142.9225,225.5917,4.200825,0.1144728,0.30411013,316.8532,04/09.0/2022,2000,g 12.0,4.0
# From MPC102102
171P/Spahr,e,21.9385,101.6903,347.0538,3.554612,0.1470672,0.50177922,173.8056,04/09.0/2022,2000,g 13.5,4.0
# From MPEC 2022-C56
172P/Yeung,e,11.2262,30.8827,209.3674,4.214921,0.1138990,0.20495304,211.2806,04/09.0/2022,2000,g 13.0,4.0
# From MPEC 2022-GA9
173P/Mueller,e,16.4916,100.3976,29.1664,5.707327,0.0722861,0.26112074,8.1982,04/09.0/2022,2000,g  7.5,4.0
# From MPC 92985
174P/Echeclus,e,4.3437,173.1973,163.2468,10.73129,0.0280367,0.45735841,71.2056,04/09.0/2022,2000,g  9.4,2.0
# From MPC114608
175P/Hergenrother,e,5.3362,118.2709,66.3065,3.555156,0.1470334,0.42118807,133.7237,04/09.0/2022,2000,g 14.0,4.0
# From MPC 89015
176P/LINEAR,e,0.2341,346.0603,34.5176,3.197779,0.1723580,0.19331240,320.8463,04/09.0/2022,2000,g 15.1,2.0
# From MPEC 2020-L06
177P/Barnard,e,31.2048,272.0997,60.3979,24.45769,0.0081486,0.95531016,46.4048,04/09.0/2022,2000,g 15.0,4.0
# From MPEC 2021-F20
178P/Hug-Bell,e,11.0875,102.8602,297.8080,3.632439,0.1423661,0.48225648,89.8645,04/09.0/2022,2000,g 14.6,4.0
# From MPEC 2022-C56
179P/Jedicke,e,19.8981,115.5135,296.9095,5.932146,0.0682160,0.30586022,356.5048,04/09.0/2022,2000,g  2.5,8.0
# From MPC100284
180P/NEAT,e,16.8632,84.5720,94.7328,3.864803,0.1297218,0.35307222,300.3979,04/09.0/2022,2000,g 11.0,4.0
# From MPC 89012
181P/Shoemaker-Levy,e,17.4861,35.4034,336.2322,3.873353,0.1292926,0.70055802,11.6687,04/09.0/2022,2000,g 11.5,4.0
# From MPEC 2014-J10
182P/LONEOS,e,16.2268,72.4596,54.2360,2.950533,0.1944703,0.66319639,353.5349,04/09.0/2022,2000,g 18.0,4.0
# From MPEC 2021-S45
183P/Korlevic-Juric,e,18.9920,4.0206,168.3852,4.586898,0.1003287,0.12551550,160.0958,04/09.0/2022,2000,g 12.5,2.0
# From MPEC 2020-W26
184P/Lovas,e,4.5736,173.2437,186.5017,3.795614,0.1332849,0.55105614,70.6026,04/09.0/2022,2000,g 13.5,4.0
# From MPC109593
185P/Petriew,e,14.0124,214.1075,181.8779,3.098380,0.1807183,0.69953817,276.8770,04/09.0/2022,2000,g 15.0,4.0
# From MPEC 2021-W31
186P/Garradd,e,28.7639,326.5459,271.2071,4.872992,0.0916243,0.12287898,107.9239,04/09.0/2022,2000,g  7.5,4.0
# From MPEC 2020-SI8
187P/LINEAR,e,13.6345,109.9067,131.6012,4.567228,0.1009776,0.15209061,144.0938,04/09.0/2022,2000,g  9.0,4.0
# From MPC106349
188P/LINEAR-Mueller,e,10.5262,358.9668,26.5799,4.372468,0.1077989,0.41639474,202.1002,04/09.0/2022,2000,g 11.5,4.0
# From MPC106349
189P/NEAT,e,20.0683,281.7185,16.3214,2.945699,0.1949492,0.58869773,332.3487,04/09.0/2022,2000,g 19.0,4.0
# From MPEC 2020-K19
190P/Mueller,e,2.1741,335.5660,50.3211,4.232428,0.1131930,0.52188945,247.9247,04/09.0/2022,2000,g 13.0,4.0
# From MPEC 2022-C56
191P/McNaught,e,8.8418,98.2322,284.0564,3.635889,0.1421635,0.38595895,54.6969,04/09.0/2022,2000,g 13.0,4.0
# From MPC 75724
192P/Shoemaker-Levy,e,24.5750,51.6118,313.0125,6.472766,0.0598507,0.77342498,313.5359,04/09.0/2022,2000,g 15.0,4.0
# From MPEC 2022-CN4
193P/LINEAR-NEAT,e,10.6885,335.1733,8.0746,3.576482,0.1457203,0.39383562,33.0528,04/09.0/2022,2000,g 14.0,4.0
# From MPC 98566
194P/LINEAR,e,11.9903,349.6001,129.5304,4.097383,0.1188350,0.57224581,281.2516,04/09.0/2022,2000,g 16.0,4.0
# From MPEC 2021-S45
